{"type": "FeatureCollection", "features": [ {"type": "Feature", "properties": {"norad_id": 31078, "name": "FENGYUN 1C DEB", "group": "fengyun-1c-debris", "lat": -68.1840252063953, "lon": -159.30226912312335, "alt_km": 826.2196226813367, "timestamp": "2025-12-09T05:43:21.006415+00:00", "meta": {"OBJECT_NAME": "FENGYUN 1C DEB", "OBJECT_ID": "1999-025BFY", "EPOCH": "2025-12-05T09:39:35.353728", "MEAN_MOTION": 14.22045821, "ECCENTRICITY": 0.01168752, "INCLINATION": 98.8694, "RA_OF_ASC_NODE": 39.8, "ARG_OF_PERICENTER": 169.8882, "MEAN_ANOMALY": 252.0219, "EPHEMERIS_TYPE": 0, "CLASSIFICATION_TYPE": "U", "NORAD_CAT_ID": 31078, "ELEMENT_SET_NO": 999, "REV_AT_EPOCH": 96788, "BSTAR": 0.0010409368, "MEAN_MOTION_DOT": 2.424e-05, "MEAN_MOTION_DDOT": 0}, "tle": {"line1": "1 31078U 99025BFY 25339.40249252  .00002424  00000+0  10409-2 0  9991", "line2": "2 31078  98.8694  39.8000 0116875 169.8882 252.0219 14.22045821967883"}}, "geometry": {"type": "Point", "coordinates": [-159.30226912312335, -68.1840252063953]}}, {"type": "Feature", "properties": {"norad_id": 31081, "name": "FENGYUN 1C DEB", "group": "fengyun-1c-debris", "lat": -41.199516715318886, "lon": 172.01580655659214, "alt_km": 846.1970793750324, "timestamp": "2025-12-09T05:43:21.006425+00:00", "meta": {"OBJECT_NAME": "FENGYUN 1C DEB", "OBJECT_ID": "1999-025BGB", "EPOCH": "2025-12-08T19:16:19.714944", "MEAN_MOTION": 14.06296788, "ECCENTRICITY": 0.0047293, "INCLINATION": 98.7706, "RA_OF_ASC_NODE": 359.3611, "ARG_OF_PERICENTER": 242.2472, "MEAN_ANOMALY": 296.4126, "EPHEMERIS_TYPE": 0, "CLASSIFICATION_TYPE": "U", "NORAD_CAT_ID": 31081, "ELEMENT_SET_NO": 999, "REV_AT_EPOCH": 96405, "BSTAR": 0.00022416, "MEAN_MOTION_DOT": 3.3e-06, "MEAN_MOTION_DDOT": 0}, "tle": {"line1": "1 31081U 99025BGB 25342.80300596  .00000330  00000+0  22416-3 0  9998", "line2": "2 31081  98.7706 359.3611 0047293 242.2472 296.4126 14.06296788964053"}}, "geometry": {"type": "Point", "coordinates": [172.01580655659214, -41.199516715318886]}}, {"type": "Feature", "properties": {"norad_id": 31083, "name": "FENGYUN 1C DEB", "group": "fengyun-1c-debris", "lat": -67.20285543465329, "lon": 121.74848450537993, "alt_km": 674.4701453578446, "timestamp": "2025-12-09T05:43:21.006436+00:00", "meta": {"OBJECT_NAME": "FENGYUN 1C DEB", "OBJECT_ID": "1999-025BGD", "EPOCH": "2025-12-08T19:14:09.319200", "MEAN_MOTION": 14.61865095, "ECCENTRICITY": 0.0031039, "INCLINATION": 98.6465, "RA_OF_ASC_NODE": 100.0661, "ARG_OF_PERICENTER": 317.7758, "MEAN_ANOMALY": 195.4354, "EPHEMERIS_TYPE": 0, "CLASSIFICATION_TYPE": "U", "NORAD_CAT_ID": 31083, "ELEMENT_SET_NO": 999, "REV_AT_EPOCH": 97652, "BSTAR": 0.0043923, "MEAN_MOTION_DOT": 0.00022122, "MEAN_MOTION_DDOT": 0}, "tle": {"line1": "1 31083U 99025BGD 25342.80149675  .00022122  00000+0  43923-2 0  9997", "line2": "2 31083  98.6465 100.0661 0031039 317.7758 195.4354 14.61865095976528"}}, "geometry": {"type": "Point", "coordinates": [121.74848450537993, -67.20285543465329]}}, {"type": "Feature", "properties": {"norad_id": 31085, "name": "FENGYUN 1C DEB", "group": "fengyun-1c-debris", "lat": 80.01884355294962, "lon": 67.93611594794389, "alt_km": 757.4596767418234, "timestamp": "2025-12-09T05:43:21.006446+00:00", "meta": {"OBJECT_NAME": "FENGYUN 1C DEB", "OBJECT_ID": "1999-025BGF", "EPOCH": "2025-12-08T19:30:55.256256", "MEAN_MOTION": 14.30306251, "ECCENTRICITY": 0.0087488, "INCLINATION": 98.9846, "RA_OF_ASC_NODE": 183.472, "ARG_OF_PERICENTER": 29.4311, "MEAN_ANOMALY": 35.3324, "EPHEMERIS_TYPE": 0, "CLASSIFICATION_TYPE": "U", "NORAD_CAT_ID": 31085, "ELEMENT_SET_NO": 999, "REV_AT_EPOCH": 97660, "BSTAR": 0.00018881, "MEAN_MOTION_DOT": 4.64e-06, "MEAN_MOTION_DDOT": 0}, "tle": {"line1": "1 31085U 99025BGF 25342.81313954  .00000464  00000+0  18881-3 0  9994", "line2": "2 31085  98.9846 183.4720 0087488  29.4311  35.3324 14.30306251976606"}}, "geometry": {"type": "Point", "coordinates": [67.93611594794389, 80.01884355294962]}}, {"type": "Feature", "properties": {"norad_id": 31087, "name": "FENGYUN 1C DEB", "group": "fengyun-1c-debris", "lat": -31.116640207055923, "lon": 178.7912098713616, "alt_km": 697.6195376514152, "timestamp": "2025-12-09T05:43:21.006457+00:00", "meta": {"OBJECT_NAME": "FENGYUN 1C DEB", "OBJECT_ID": "1999-025BGH", "EPOCH": "2025-12-08T19:42:40.218048", "MEAN_MOTION": 14.60247941, "ECCENTRICITY": 0.0172032, "INCLINATION": 98.1024, "RA_OF_ASC_NODE": 3.3163, "ARG_OF_PERICENTER": 303.2912, "MEAN_ANOMALY": 238.4856, "EPHEMERIS_TYPE": 0, "CLASSIFICATION_TYPE": "U", "NORAD_CAT_ID": 31087, "ELEMENT_SET_NO": 999, "REV_AT_EPOCH": 98712, "BSTAR": 0.0012954, "MEAN_MOTION_DOT": 7.65e-05, "MEAN_MOTION_DDOT": 0}, "tle": {"line1": "1 31087U 99025BGH 25342.82129882  .00007650  00000+0  12954-2 0  9990", "line2": "2 31087  98.1024   3.3163 0172032 303.2912 238.4856 14.60247941987127"}}, "geometry": {"type": "Point", "coordinates": [178.7912098713616, -31.116640207055923]}}, {"type": "Feature", "properties": {"norad_id": 31088, "name": "FENGYUN 1C DEB", "group": "fengyun-1c-debris", "lat": 24.401623718862577, "lon": -132.5377001159821, "alt_km": 793.0044925240127, "timestamp": "2025-12-09T05:43:21.006468+00:00", "meta": {"OBJECT_NAME": "FENGYUN 1C DEB", "OBJECT_ID": "1999-025BGJ", "EPOCH": "2025-12-06T03:10:53.544288", "MEAN_MOTION": 14.28618697, "ECCENTRICITY": 0.00290139, "INCLINATION": 99.4119, "RA_OF_ASC_NODE": 39.7992, "ARG_OF_PERICENTER": 80.7204, "MEAN_ANOMALY": 309.1309, "EPHEMERIS_TYPE": 0, "CLASSIFICATION_TYPE": "U", "NORAD_CAT_ID": 31088, "ELEMENT_SET_NO": 999, "REV_AT_EPOCH": 96455, "BSTAR": 0.00281036, "MEAN_MOTION_DOT": 7.045e-05, "MEAN_MOTION_DDOT": 0}, "tle": {"line1": "1 31088U 99025BGJ 25340.13256417  .00007045  00000+0  28104-2 0  9990", "line2": "2 31088  99.4119  39.7992 0029013  80.7204 309.1309 14.28618697964556"}}, "geometry": {"type": "Point", "coordinates": [-132.5377001159821, 24.401623718862577]}}, {"type": "Feature", "properties": {"norad_id": 31089, "name": "FENGYUN 1C DEB", "group": "fengyun-1c-debris", "lat": 37.673310708553004, "lon": 118.44422522246886, "alt_km": 1082.1270852665793, "timestamp": "2025-12-09T05:43:21.006478+00:00", "meta": {"OBJECT_NAME": "FENGYUN 1C DEB", "OBJECT_ID": "1999-025BGK", "EPOCH": "2025-12-07T21:25:32.147616", "MEAN_MOTION": 13.88305057, "ECCENTRICITY": 0.02058957, "INCLINATION": 98.9488, "RA_OF_ASC_NODE": 124.1407, "ARG_OF_PERICENTER": 224.7678, "MEAN_ANOMALY": 291.3696, "EPHEMERIS_TYPE": 0, "CLASSIFICATION_TYPE": "U", "NORAD_CAT_ID": 31089, "ELEMENT_SET_NO": 999, "REV_AT_EPOCH": 67992, "BSTAR": 0.0012224374, "MEAN_MOTION_DOT": 1.69e-05, "MEAN_MOTION_DDOT": 0}, "tle": {"line1": "1 31089U 99025BGK 25341.89273319  .00001690  00000+0  12224-2 0  9991", "line2": "2 31089  98.9488 124.1407 0205895 224.7678 291.3696 13.88305057679922"}}, "geometry": {"type": "Point", "coordinates": [118.44422522246886, 37.673310708553004]}}, {"type": "Feature", "properties": {"norad_id": 31090, "name": "FENGYUN 1C DEB", "group": "fengyun-1c-debris", "lat": 80.9998045581955, "lon": -6.283022809780876, "alt_km": 437.6009924933287, "timestamp": "2025-12-09T05:43:21.006488+00:00", "meta": {"OBJECT_NAME": "FENGYUN 1C DEB", "OBJECT_ID": "1999-025BGL", "EPOCH": "2025-12-08T05:49:34.030272", "MEAN_MOTION": 15.32633337, "ECCENTRICITY": 0.00564213, "INCLINATION": 98.9833, "RA_OF_ASC_NODE": 85.3218, "ARG_OF_PERICENTER": 148.3949, "MEAN_ANOMALY": 212.0697, "EPHEMERIS_TYPE": 0, "CLASSIFICATION_TYPE": "U", "NORAD_CAT_ID": 31090, "ELEMENT_SET_NO": 999, "REV_AT_EPOCH": 769, "BSTAR": 0.0020232243, "MEAN_MOTION_DOT": 0.0006746, "MEAN_MOTION_DDOT": 0}, "tle": {"line1": "1 31090U 99025BGL 25342.24275498  .00067460  00000+0  20232-2 0  9998", "line2": "2 31090  98.9833  85.3218 0056421 148.3949 212.0697 15.32633337  7693"}}, "geometry": {"type": "Point", "coordinates": [-6.283022809780876, 80.9998045581955]}}, {"type": "Feature", "properties": {"norad_id": 31091, "name": "FENGYUN 1C DEB", "group": "fengyun-1c-debris", "lat": -4.891093846067932, "lon": -38.68047247308224, "alt_km": 853.4146357878199, "timestamp": "2025-12-09T05:43:21.006499+00:00", "meta": {"OBJECT_NAME": "FENGYUN 1C DEB", "OBJECT_ID": "1999-025BGM", "EPOCH": "2025-12-08T19:06:22.627872", "MEAN_MOTION": 13.54139391, "ECCENTRICITY": 0.0290862, "INCLINATION": 99.2242, "RA_OF_ASC_NODE": 320.1096, "ARG_OF_PERICENTER": 339.0045, "MEAN_ANOMALY": 19.9348, "EPHEMERIS_TYPE": 0, "CLASSIFICATION_TYPE": "U", "NORAD_CAT_ID": 31091, "ELEMENT_SET_NO": 999, "REV_AT_EPOCH": 61586, "BSTAR": 0.0015704, "MEAN_MOTION_DOT": 1.354e-05, "MEAN_MOTION_DDOT": 0}, "tle": {"line1": "1 31091U 99025BGM 25342.79609523  .00001354  00000+0  15704-2 0  9997", "line2": "2 31091  99.2242 320.1096 0290862 339.0045  19.9348 13.54139391615865"}}, "geometry": {"type": "Point", "coordinates": [-38.68047247308224, -4.891093846067932]}}, {"type": "Feature", "properties": {"norad_id": 31092, "name": "FENGYUN 1C DEB", "group": "fengyun-1c-debris", "lat": 80.12560584906393, "lon": -1.1753851383181635, "alt_km": 927.1058223068749, "timestamp": "2025-12-09T05:43:21.006509+00:00", "meta": {"OBJECT_NAME": "FENGYUN 1C DEB", "OBJECT_ID": "1999-025BGN", "EPOCH": "2025-11-15T07:00:52.552224", "MEAN_MOTION": 13.46401433, "ECCENTRICITY": 0.03278725, "INCLINATION": 99.7115, "RA_OF_ASC_NODE": 75.9227, "ARG_OF_PERICENTER": 204.4209, "MEAN_ANOMALY": 154.1084, "EPHEMERIS_TYPE": 0, "CLASSIFICATION_TYPE": "U", "NORAD_CAT_ID": 31092, "ELEMENT_SET_NO": 999, "REV_AT_EPOCH": 91512, "BSTAR": 0.0042000132, "MEAN_MOTION_DOT": 3.457e-05, "MEAN_MOTION_DDOT": 0}, "tle": {"line1": "1 31092U 99025BGN 25319.29227491  .00003457  00000+0  42000-2 0  9992", "line2": "2 31092  99.7115  75.9227 0327872 204.4209 154.1084 13.46401433915121"}}, "geometry": {"type": "Point", "coordinates": [-1.1753851383181635, 80.12560584906393]}}]}